STARLINK-34276          
1 64263U 25120H   26068.40011151  .00015066  00000+0  51971-3 0  9999
2 64263  53.1586 117.9046 0001203  90.2666 269.8472 15.30204066 43871
KUIPER-00222            
1 67782U 26030U   26068.67636257  .00055223  00000+0  17317-2 0  9992
2 67782  51.8817 219.7147 0012800  40.1845 320.0084 15.32445377  5087
